[{"OBJECT_NAME":"STARLINK-2581","OBJECT_ID":"2021-038BM","EPOCH":"2026-03-09T20:21:32.588640","MEAN_MOTION":15.06396675,"ECCENTRICITY":0.00014731,"INCLINATION":53.054,"RA_OF_ASC_NODE":291.3408,"ARG_OF_PERICENTER":74.8336,"MEAN_ANOMALY":285.2816,"EPHEMERIS_TYPE":0,"CLASSIFICATION_TYPE":"U","NORAD_CAT_ID":48412,"ELEMENT_SET_NO":999,"REV_AT_EPOCH":26803,"BSTAR":5.2922796e-5,"MEAN_MOTION_DOT":5.07e-6,"MEAN_MOTION_DDOT":0},{"OBJECT_NAME":"CZ-4B DEB","OBJECT_ID":"2006-015C","EPOCH":"2026-03-08T07:50:56.789952","MEAN_MOTION":14.91364963,"ECCENTRICITY":0.00849927,"INCLINATION":97.8628,"RA_OF_ASC_NODE":27.0975,"ARG_OF_PERICENTER":296.8782,"MEAN_ANOMALY":62.3767,"EPHEMERIS_TYPE":0,"CLASSIFICATION_TYPE":"U","NORAD_CAT_ID":29536,"ELEMENT_SET_NO":999,"REV_AT_EPOCH":4888,"BSTAR":0.0026311155,"MEAN_MOTION_DOT":0.00028164,"MEAN_MOTION_DDOT":0}]
